IRIDIUM 26              
1 24903U 97043A   25344.19279722  .00000594  00000+0  19258-3 0  9993
2 24903  86.3964  36.6337 0002043  98.5508 261.5921 14.37324434482025
IRIDIUM 22              
1 24907U 97043E   25344.19932366  .00000528  00000+0  17453-3 0  9999
2 24907  86.3966  40.3217 0002230  96.4614 263.6837 14.36119112482037
DUMMY MASS 1            
1 24925U 97048A   25344.24883588  .00000705  00000+0  75280-4 0  9991
2 24925  86.3347  53.8593 0004668 228.2608 131.8219 14.87179721531292
DUMMY MASS 2            
1 24926U 97048B   25344.24039174  .00000700  00000+0  75226-4 0  9991
2 24926  86.3348  55.5037 0005153 246.8762 113.1921 14.86930295531061
IRIDIUM 29              
1 24944U 97051A   25344.22805103  .00000754  00000+0  24951-3 0  9993
2 24944  86.3954  69.9981 0002283  93.0452 267.1006 14.36659798478548
IRIDIUM 33              
1 24946U 97051C   25344.26599483  .00000581  00000+0  19700-3 0  9994
2 24946  86.3869  69.2600 0006753 209.4020 150.6797 14.35034693477997
IRIDIUM 28              
1 24948U 97051E   25344.22983831  .00000709  00000+0  23028-3 0  9996
2 24948  86.3959  67.4122 0001822 108.3470 251.7926 14.37559779479130
IRIDIUM 36              
1 24967U 97056C   25344.30491558  .00000756  00000+0  24485-3 0  9991
2 24967  86.3958  99.0082 0002053 101.8786 258.2642 14.37780564477527
